ORBCOMM FM115           
1 41186U 15081H   25091.87357902  .00001852  00000+0  39765-3 0  9991
2 41186  46.9987  42.4590 0000680 351.8693   8.2183 14.62299577496607
ORBCOMM FM108           
1 41187U 15081J   25091.76650156  .00001280  00000+0  31245-3 0  9997
2 41187  47.0038 107.8261 0003681 307.1156  52.9393 14.58011349495646
ORBCOMM FM117           
1 41188U 15081K   25091.73282229  .00001338  00000+0  32531-3 0  9990
2 41188  47.0002 106.7732 0003890 317.8463  42.2122 14.57954694495684
ORBCOMM FM116           
1 41189U 15081L   25091.58717356  .00002103  00000+0  49014-3 0  9993
2 41189  47.0008 197.3313 0000654  10.9235 349.1664 14.57971713494472
